[
    {
        "Altitude(m)": 573682.8898626044,
        "Argument of Periapsis(deg)": -0.015068773855314936,
        "Eccentricity": 0.0,
        "Inclination(deg)": 97.0,
        "Latitude(deg)": 60.33202090892514,
        "Longitude(deg)": 6.0684460202531065,
        "Mean Anomaly(deg)": 61.00949551279166,
        "RAAN(deg)": 120.00396470241235,
        "Satellite Name": "Starlink Shell 3 1822",
        "Satellite Number": 1822,
        "Semi-Major Axis(m)": 6938478.169268562,
        "Time(s)": 380
    },
    {
        "Altitude(m)": 573808.8631674843,
        "Argument of Periapsis(deg)": -0.015465320535717962,
        "Eccentricity": 0.0,
        "Inclination(deg)": 97.0,
        "Latitude(deg)": 60.93677925820973,
        "Longitude(deg)": 5.712131990238996,
        "Mean Anomaly(deg)": 61.63497171049671,
        "RAAN(deg)": 120.00406903668635,
        "Satellite Name": "Starlink Shell 3 1822",
        "Satellite Number": 1822,
        "Semi-Major Axis(m)": 6938478.169268562,
        "Time(s)": 390
    },
    {
        "Altitude(m)": 573933.2653423488,
        "Argument of Periapsis(deg)": -0.015861867216120987,
        "Eccentricity": 0.0,
        "Inclination(deg)": 97.0,
        "Latitude(deg)": 61.540713024294234,
        "Longitude(deg)": 5.3436769655047245,
        "Mean Anomaly(deg)": 62.26044790820172,
        "RAAN(deg)": 120.00417337096037,
        "Satellite Name": "Starlink Shell 3 1822",
        "Satellite Number": 1822,
        "Semi-Major Axis(m)": 6938478.169268562,
        "Time(s)": 400
    },
    {
        "Altitude(m)": 574056.0239070691,
        "Argument of Periapsis(deg)": -0.01625841389652401,
        "Eccentricity": 0.0,
        "Inclination(deg)": 97.0,
        "Latitude(deg)": 62.14377345558827,
        "Longitude(deg)": 4.962304612584402,
        "Mean Anomaly(deg)": 62.88592410590679,
        "RAAN(deg)": 120.00427770523437,
        "Satellite Name": "Starlink Shell 3 1822",
        "Satellite Number": 1822,
        "Semi-Major Axis(m)": 6938478.169268562,
        "Time(s)": 410
    },
    {
        "Altitude(m)": 574177.0674580217,
        "Argument of Periapsis(deg)": -0.016654960576927034,
        "Eccentricity": 0.0,
        "Inclination(deg)": 97.0,
        "Latitude(deg)": 62.74590752283372,
        "Longitude(deg)": 4.567172672306544,
        "Mean Anomaly(deg)": 63.511400303611836,
        "RAAN(deg)": 120.00438203950834,
        "Satellite Name": "Starlink Shell 3 1822",
        "Satellite Number": 1822,
        "Semi-Major Axis(m)": 6938478.169268562,
        "Time(s)": 420
    },
    {
        "Altitude(m)": 574296.3257026325,
        "Argument of Periapsis(deg)": -0.01705150725733006,
        "Eccentricity": 0.0,
        "Inclination(deg)": 97.0,
        "Latitude(deg)": 63.34705744875735,
        "Longitude(deg)": 4.1573666097947495,
        "Mean Anomaly(deg)": 64.13687650131686,
        "RAAN(deg)": 120.00448637378237,
        "Satellite Name": "Starlink Shell 3 1822",
        "Satellite Number": 1822,
        "Semi-Major Axis(m)": 6938478.169268562,
        "Time(s)": 430
    },
    {
        "Altitude(m)": 574413.7294933237,
        "Argument of Periapsis(deg)": -0.017448053937733084,
        "Eccentricity": 0.0,
        "Inclination(deg)": 97.0,
        "Latitude(deg)": 63.94716017624028,
        "Longitude(deg)": 3.7318924144448786,
        "Mean Anomaly(deg)": 64.76235269902193,
        "RAAN(deg)": 120.00459070805638,
        "Satellite Name": "Starlink Shell 3 1822",
        "Satellite Number": 1822,
        "Semi-Major Axis(m)": 6938478.169268562,
        "Time(s)": 440
    },
    {
        "Altitude(m)": 574529.2108608796,
        "Argument of Periapsis(deg)": -0.017844600618136107,
        "Eccentricity": 0.0,
        "Inclination(deg)": 97.0,
        "Latitude(deg)": 64.54614676564476,
        "Longitude(deg)": 3.289666916805929,
        "Mean Anomaly(deg)": 65.38782889672697,
        "RAAN(deg)": 120.00469504233038,
        "Satellite Name": "Starlink Shell 3 1822",
        "Satellite Number": 1822,
        "Semi-Major Axis(m)": 6938478.169268562,
        "Time(s)": 450
    },
    {
        "Altitude(m)": 574642.7030471936,
        "Argument of Periapsis(deg)": -0.018241147298539134,
        "Eccentricity": 0.0,
        "Inclination(deg)": 97.0,
        "Latitude(deg)": 65.14394171033294,
        "Longitude(deg)": 2.829508509238697,
        "Mean Anomaly(deg)": 66.01330509443201,
        "RAAN(deg)": 120.00479937660441,
        "Satellite Name": "Starlink Shell 3 1822",
        "Satellite Number": 1822,
        "Semi-Major Axis(m)": 6938478.169268562,
        "Time(s)": 460
    },
    {
        "Altitude(m)": 574754.1405373847,
        "Argument of Periapsis(deg)": -0.018637693978942157,
        "Eccentricity": 0.0,
        "Inclination(deg)": 97.0,
        "Latitude(deg)": 65.74046215747859,
        "Longitude(deg)": 2.3501265969049467,
        "Mean Anomaly(deg)": 66.63878129213704,
        "RAAN(deg)": 120.00490371087841,
        "Satellite Name": "Starlink Shell 3 1822",
        "Satellite Number": 1822,
        "Semi-Major Axis(m)": 6938478.169268562,
        "Time(s)": 470
    },
    {
        "Altitude(m)": 574863.4590912818,
        "Argument of Periapsis(deg)": -0.019034240659345183,
        "Eccentricity": 0.0,
        "Inclination(deg)": 97.0,
        "Latitude(deg)": 66.33561701897763,
        "Longitude(deg)": 1.8501080804346768,
        "Mean Anomaly(deg)": 67.2642574898421,
        "RAAN(deg)": 120.00500804515244,
        "Satellite Name": "Starlink Shell 3 1822",
        "Satellite Number": 1822,
        "Semi-Major Axis(m)": 6938478.169268562,
        "Time(s)": 480
    },
    {
        "Altitude(m)": 574970.5957742546,
        "Argument of Periapsis(deg)": -0.019430787339748207,
        "Eccentricity": 0.0,
        "Inclination(deg)": 97.0,
        "Latitude(deg)": 66.92930595452187,
        "Longitude(deg)": 1.3279036810134357,
        "Mean Anomaly(deg)": 67.88973368754716,
        "RAAN(deg)": 120.00511237942644,
        "Satellite Name": "Starlink Shell 3 1822",
        "Satellite Number": 1822,
        "Semi-Major Axis(m)": 6938478.169268562,
        "Time(s)": 490
    },
    {
        "Altitude(m)": 575075.4889873759,
        "Argument of Periapsis(deg)": -0.019827334020151237,
        "Eccentricity": 0.0,
        "Inclination(deg)": 97.0,
        "Latitude(deg)": 67.52141820560173,
        "Longitude(deg)": 0.7818123462107844,
        "Mean Anomaly(deg)": 68.51520988525218,
        "RAAN(deg)": 120.00521671370045,
        "Satellite Name": "Starlink Shell 3 1822",
        "Satellite Number": 1822,
        "Semi-Major Axis(m)": 6938478.169268562,
        "Time(s)": 500
    },
    {
        "Altitude(m)": 575178.0784969226,
        "Argument of Periapsis(deg)": -0.020223880700554257,
        "Eccentricity": 0.0,
        "Inclination(deg)": 97.0,
        "Latitude(deg)": 68.11183125525022,
        "Longitude(deg)": 0.2099619359305763,
        "Mean Anomaly(deg)": 69.1406860829572,
        "RAAN(deg)": 120.00532104797445,
        "Satellite Name": "Starlink Shell 3 1822",
        "Satellite Number": 1822,
        "Semi-Major Axis(m)": 6938478.169268562,
        "Time(s)": 510
    },
    {
        "Altitude(m)": 575278.3054631632,
        "Argument of Periapsis(deg)": -0.020620427380957283,
        "Eccentricity": 0.0,
        "Inclination(deg)": 97.0,
        "Latitude(deg)": 68.70040928359667,
        "Longitude(deg)": -0.38971111815739135,
        "Mean Anomaly(deg)": 69.76616228066227,
        "RAAN(deg)": 120.00542538224848,
        "Satellite Name": "Starlink Shell 3 1822",
        "Satellite Number": 1822,
        "Semi-Major Axis(m)": 6938478.169268562,
        "Time(s)": 520
    },
    {
        "Altitude(m)": 575376.1124684797,
        "Argument of Periapsis(deg)": -0.021016974061360306,
        "Eccentricity": 0.0,
        "Inclination(deg)": 97.0,
        "Latitude(deg)": 69.2870013835725,
        "Longitude(deg)": -1.0194850757342846,
        "Mean Anomaly(deg)": 70.39163847836733,
        "RAAN(deg)": 120.00552971652245,
        "Satellite Name": "Starlink Shell 3 1822",
        "Satellite Number": 1822,
        "Semi-Major Axis(m)": 6938478.169268562,
        "Time(s)": 530
    },
    {
        "Altitude(m)": 575471.4435447417,
        "Argument of Periapsis(deg)": -0.021413520741763333,
        "Eccentricity": 0.0,
        "Inclination(deg)": 97.0,
        "Latitude(deg)": 69.87143949422176,
        "Longitude(deg)": -1.6818810266785151,
        "Mean Anomaly(deg)": 71.01711467607237,
        "RAAN(deg)": 120.00563405079647,
        "Satellite Name": "Starlink Shell 3 1822",
        "Satellite Number": 1822,
        "Semi-Major Axis(m)": 6938478.169268562,
        "Time(s)": 540
    },
    {
        "Altitude(m)": 575564.2441999943,
        "Argument of Periapsis(deg)": -0.021810067422166356,
        "Eccentricity": 0.0,
        "Inclination(deg)": 97.0,
        "Latitude(deg)": 70.45353600077813,
        "Longitude(deg)": -2.3796933835625063,
        "Mean Anomaly(deg)": 71.64259087377741,
        "RAAN(deg)": 120.00573838507047,
        "Satellite Name": "Starlink Shell 3 1822",
        "Satellite Number": 1822,
        "Semi-Major Axis(m)": 6938478.169268562,
        "Time(s)": 550
    },
    {
        "Altitude(m)": 575654.4614443976,
        "Argument of Periapsis(deg)": -0.022206614102569383,
        "Eccentricity": 0.0,
        "Inclination(deg)": 97.0,
        "Latitude(deg)": 71.03308094066361,
        "Longitude(deg)": -3.116024813036139,
        "Mean Anomaly(deg)": 72.26806707148246,
        "RAAN(deg)": 120.0058427193445,
        "Satellite Name": "Starlink Shell 3 1822",
        "Satellite Number": 1822,
        "Semi-Major Axis(m)": 6938478.169268562,
        "Time(s)": 560
    }
]